{
 "generated_at": "2026-07-11T07:11:30Z",
 "sources": [
  {
   "name": "CelesTrak",
   "url": "https://celestrak.org/NORAD/elements/",
   "license": "frei verfügbar; Attribution. Ursprünglich USSPACECOM/Space-Track."
  },
  {
   "name": "GCAT (J. McDowell, planet4589.org)",
   "url": "https://planet4589.org/space/gcat/",
   "license": "CC-BY 4.0"
  }
 ],
 "satellites": [
  {
   "norad": 51284,
   "name": "LUDI TANCE 1-01A (L-SAR 01A)",
   "intl": "2022-007A",
   "group": "sar",
   "gcat": {
    "class": "C",
    "category": "IMG-R",
    "owner": "SAST",
    "state": "CN"
   },
   "omm": {
    "OBJECT_NAME": "LUDI TANCE 1-01A (L-SAR 01A)",
    "OBJECT_ID": "2022-007A",
    "EPOCH": "2026-07-10T20:16:49.401408",
    "MEAN_MOTION": 14.88416167,
    "ECCENTRICITY": 0.0001594,
    "INCLINATION": 97.8109,
    "RA_OF_ASC_NODE": 198.9289,
    "ARG_OF_PERICENTER": 91.3106,
    "MEAN_ANOMALY": 268.8294,
    "EPHEMERIS_TYPE": 0,
    "CLASSIFICATION_TYPE": "U",
    "NORAD_CAT_ID": 51284,
    "ELEMENT_SET_NO": 999,
    "REV_AT_EPOCH": 24199,
    "BSTAR": 0.000042639,
    "MEAN_MOTION_DOT": 0.00000341,
    "MEAN_MOTION_DDOT": 0
   }
  },
  {
   "norad": 51822,
   "name": "LUDI TANCE 1-01B (L-SAR 01B)",
   "intl": "2022-018A",
   "group": "sar",
   "gcat": {
    "class": "C",
    "category": "IMG-R",
    "owner": "SAST",
    "state": "CN"
   },
   "omm": {
    "OBJECT_NAME": "LUDI TANCE 1-01B (L-SAR 01B)",
    "OBJECT_ID": "2022-018A",
    "EPOCH": "2026-07-10T21:05:12.769728",
    "MEAN_MOTION": 14.88410688,
    "ECCENTRICITY": 0.0001637,
    "INCLINATION": 97.8108,
    "RA_OF_ASC_NODE": 198.96,
    "ARG_OF_PERICENTER": 91.6776,
    "MEAN_ANOMALY": 268.4628,
    "EPHEMERIS_TYPE": 0,
    "CLASSIFICATION_TYPE": "U",
    "NORAD_CAT_ID": 51822,
    "ELEMENT_SET_NO": 999,
    "REV_AT_EPOCH": 23723,
    "BSTAR": 0.000039893,
    "MEAN_MOTION_DOT": 0.00000315,
    "MEAN_MOTION_DDOT": 0
   }
  },
  {
   "norad": 57624,
   "name": "LUDI TANCE-4 01A",
   "intl": "2023-120A",
   "group": "sar",
   "gcat": {
    "class": "D",
    "category": "IMG-R",
    "owner": "CNSA",
    "state": "CN"
   },
   "omm": {
    "OBJECT_NAME": "LUDI TANCE-4 01A",
    "OBJECT_ID": "2023-120A",
    "EPOCH": "2026-07-10T00:20:28.068000",
    "MEAN_MOTION": 1.00276968,
    "ECCENTRICITY": 0.0001315,
    "INCLINATION": 15.09,
    "RA_OF_ASC_NODE": 193.4082,
    "ARG_OF_PERICENTER": 40.7671,
    "MEAN_ANOMALY": 148.2889,
    "EPHEMERIS_TYPE": 0,
    "CLASSIFICATION_TYPE": "U",
    "NORAD_CAT_ID": 57624,
    "ELEMENT_SET_NO": 999,
    "REV_AT_EPOCH": 1077,
    "BSTAR": 0,
    "MEAN_MOTION_DOT": -0.00000155,
    "MEAN_MOTION_DDOT": 0
   }
  },
  {
   "norad": 27004,
   "name": "MAROC-TUBSAT",
   "intl": "2001-056D",
   "group": "resource",
   "gcat": {
    "class": null,
    "category": null,
    "owner": null,
    "state": null
   },
   "omm": {
    "OBJECT_NAME": "MAROC-TUBSAT",
    "OBJECT_ID": "2001-056D",
    "EPOCH": "2026-07-10T17:36:31.082112",
    "MEAN_MOTION": 13.7026338,
    "ECCENTRICITY": 0.0020634,
    "INCLINATION": 99.8095,
    "RA_OF_ASC_NODE": 9.0383,
    "ARG_OF_PERICENTER": 83.0792,
    "MEAN_ANOMALY": 344.3434,
    "EPHEMERIS_TYPE": 0,
    "CLASSIFICATION_TYPE": "U",
    "NORAD_CAT_ID": 27004,
    "ELEMENT_SET_NO": 999,
    "REV_AT_EPOCH": 22941,
    "BSTAR": 0.000031169,
    "MEAN_MOTION_DOT": -1.9e-7,
    "MEAN_MOTION_DDOT": 0
   }
  },
  {
   "norad": 40069,
   "name": "METEOR-M 2",
   "intl": "2014-037A",
   "group": "weather",
   "gcat": {
    "class": "C",
    "category": "MET",
    "owner": "RGMS/VNIIEMI",
    "state": "RU"
   },
   "omm": {
    "OBJECT_NAME": "METEOR-M 2",
    "OBJECT_ID": "2014-037A",
    "EPOCH": "2026-07-10T19:07:05.843424",
    "MEAN_MOTION": 14.21467199,
    "ECCENTRICITY": 0.000541,
    "INCLINATION": 98.5126,
    "RA_OF_ASC_NODE": 166.6998,
    "ARG_OF_PERICENTER": 341.2029,
    "MEAN_ANOMALY": 18.8948,
    "EPHEMERIS_TYPE": 0,
    "CLASSIFICATION_TYPE": "U",
    "NORAD_CAT_ID": 40069,
    "ELEMENT_SET_NO": 999,
    "REV_AT_EPOCH": 62267,
    "BSTAR": -0.0001169,
    "MEAN_MOTION_DOT": -0.00000298,
    "MEAN_MOTION_DDOT": 0
   }
  },
  {
   "norad": 44387,
   "name": "METEOR-M2 2",
   "intl": "2019-038A",
   "group": "weather",
   "gcat": {
    "class": "C",
    "category": "MET",
    "owner": "RGMS/VNIIEMI",
    "state": "RU"
   },
   "omm": {
    "OBJECT_NAME": "METEOR-M2 2",
    "OBJECT_ID": "2019-038A",
    "EPOCH": "2026-07-10T20:20:09.305952",
    "MEAN_MOTION": 14.24371638,
    "ECCENTRICITY": 0.0000984,
    "INCLINATION": 98.9159,
    "RA_OF_ASC_NODE": 179.4827,
    "ARG_OF_PERICENTER": 12.5438,
    "MEAN_ANOMALY": 347.5765,
    "EPHEMERIS_TYPE": 0,
    "CLASSIFICATION_TYPE": "U",
    "NORAD_CAT_ID": 44387,
    "ELEMENT_SET_NO": 999,
    "REV_AT_EPOCH": 36466,
    "BSTAR": -0.000039078,
    "MEAN_MOTION_DOT": -0.00000136,
    "MEAN_MOTION_DDOT": 0
   }
  },
  {
   "norad": 57166,
   "name": "METEOR-M2 3",
   "intl": "2023-091A",
   "group": "weather",
   "gcat": {
    "class": "C",
    "category": "MET",
    "owner": "RGMS/VNIIEMI",
    "state": "RU"
   },
   "omm": {
    "OBJECT_NAME": "METEOR-M2 3",
    "OBJECT_ID": "2023-091A",
    "EPOCH": "2026-07-10T20:19:50.306592",
    "MEAN_MOTION": 14.24048704,
    "ECCENTRICITY": 0.0005151,
    "INCLINATION": 98.607,
    "RA_OF_ASC_NODE": 246.3398,
    "ARG_OF_PERICENTER": 100.0265,
    "MEAN_ANOMALY": 260.1495,
    "EPHEMERIS_TYPE": 0,
    "CLASSIFICATION_TYPE": "U",
    "NORAD_CAT_ID": 57166,
    "ELEMENT_SET_NO": 999,
    "REV_AT_EPOCH": 15788,
    "BSTAR": 0.000012041,
    "MEAN_MOTION_DOT": -1.5e-7,
    "MEAN_MOTION_DDOT": 0
   }
  },
  {
   "norad": 59051,
   "name": "METEOR-M2 4",
   "intl": "2024-039A",
   "group": "weather",
   "gcat": {
    "class": "C",
    "category": "MET",
    "owner": "RGMS/VNIIEMI",
    "state": "RU"
   },
   "omm": {
    "OBJECT_NAME": "METEOR-M2 4",
    "OBJECT_ID": "2024-039A",
    "EPOCH": "2026-07-10T21:19:41.615904",
    "MEAN_MOTION": 14.22431905,
    "ECCENTRICITY": 0.0008227,
    "INCLINATION": 98.7022,
    "RA_OF_ASC_NODE": 150.8903,
    "ARG_OF_PERICENTER": 99.4812,
    "MEAN_ANOMALY": 260.7296,
    "EPHEMERIS_TYPE": 0,
    "CLASSIFICATION_TYPE": "U",
    "NORAD_CAT_ID": 59051,
    "ELEMENT_SET_NO": 999,
    "REV_AT_EPOCH": 12263,
    "BSTAR": 0.000016936,
    "MEAN_MOTION_DOT": -6e-8,
    "MEAN_MOTION_DDOT": 0
   }
  },
  {
   "norad": 38552,
   "name": "METEOSAT-10 (MSG-3)",
   "intl": "2012-035B",
   "group": "weather",
   "gcat": {
    "class": "C",
    "category": "MET",
    "owner": "EUMET",
    "state": "I-EUM"
   },
   "omm": {
    "OBJECT_NAME": "METEOSAT-10 (MSG-3)",
    "OBJECT_ID": "2012-035B",
    "EPOCH": "2026-07-10T20:26:56.168736",
    "MEAN_MOTION": 1.00270027,
    "ECCENTRICITY": 0.0001106,
    "INCLINATION": 4.7249,
    "RA_OF_ASC_NODE": 60.8996,
    "ARG_OF_PERICENTER": 18.7066,
    "MEAN_ANOMALY": 155.9604,
    "EPHEMERIS_TYPE": 0,
    "CLASSIFICATION_TYPE": "U",
    "NORAD_CAT_ID": 38552,
    "ELEMENT_SET_NO": 999,
    "REV_AT_EPOCH": 5109,
    "BSTAR": 0,
    "MEAN_MOTION_DOT": -3e-8,
    "MEAN_MOTION_DDOT": 0
   }
  },
  {
   "norad": 40732,
   "name": "METEOSAT-11 (MSG-4)",
   "intl": "2015-034A",
   "group": "weather",
   "gcat": {
    "class": "C",
    "category": "MET",
    "owner": "EUMET",
    "state": "I-EUM"
   },
   "omm": {
    "OBJECT_NAME": "METEOSAT-11 (MSG-4)",
    "OBJECT_ID": "2015-034A",
    "EPOCH": "2026-07-10T20:29:33.419328",
    "MEAN_MOTION": 1.00270506,
    "ECCENTRICITY": 0.0002259,
    "INCLINATION": 3.2589,
    "RA_OF_ASC_NODE": 70.9624,
    "ARG_OF_PERICENTER": 352.4897,
    "MEAN_ANOMALY": 181.9591,
    "EPHEMERIS_TYPE": 0,
    "CLASSIFICATION_TYPE": "U",
    "NORAD_CAT_ID": 40732,
    "ELEMENT_SET_NO": 999,
    "REV_AT_EPOCH": 745,
    "BSTAR": 0,
    "MEAN_MOTION_DOT": 6.7e-7,
    "MEAN_MOTION_DDOT": 0
   }
  }
 ]
}
